IRIDIUM 921             
1 24873U 97034E   24181.79704008  .00039629  00000+0  98012-3 0  9999
2 24873  86.3802 281.8667 0004808 177.5702 182.5576 15.40282155477409
IRIDIUM 26              
1 24903U 97043A   24181.58938170  .00000819  00000+0  27291-3 0  9999
2 24903  86.3954 258.5504 0002262 100.0091 260.1361 14.36417494406111
IRIDIUM 22              
1 24907U 97043E   24181.58492828  .00000782  00000+0  26618-3 0  9999
2 24907  86.3957 261.7997 0002218  93.8826 266.2624 14.35305343406180
DUMMY MASS 1            
1 24925U 97048A   24181.58140340  .00000905  00000+0  99858-4 0  9997
2 24925  86.3346 298.2610 0005414 334.6985  25.3974 14.86262388452980
DUMMY MASS 2            
1 24926U 97048B   24181.62004945  .00000896  00000+0  99350-4 0  9999
2 24926  86.3348 299.7888 0006612 344.8908  15.2117 14.86020338452530
IRIDIUM 29              
1 24944U 97051A   24181.37485566  .00000819  00000+0  27678-3 0  9995
2 24944  86.3954 291.7937 0002061  88.5751 271.5682 14.35753811402635
IRIDIUM 33              
1 24946U 97051C   24181.55259051  .00000669  00000+0  23099-3 0  9991
2 24946  86.3870 290.9696 0009306 138.4689 221.7216 14.34402239402185
IRIDIUM 28              
1 24948U 97051E   24181.57962044  .00000892  00000+0  29637-3 0  9990
2 24948  86.3960 289.4236 0002377 103.9498 256.1963 14.36708547403204
